NORAD_CAT_ID,OBJECT_NAME,OBJECT_TYPE,EPOCH,MEAN_MOTION,ECCENTRICITY,INCLINATION,RA_OF_ASC_NODE,ARG_OF_PERICENTER,MEAN_ANOMALY,BSTAR,MEAN_MOTION_DOT,MEAN_MOTION_DDOT,TLE_LINE0,TLE_LINE1,TLE_LINE2,SEMIMAJOR_AXIS,PERIOD,APOGEE,PERIGEE,DECAYED
53393.0,STARLINK-4530,PAYLOAD,2023-09-08 01:25:31,15.08869947,0.0001106,53.2172,265.5646,80.4854,279.6263,-0.00045326,-7.5e-05,0.0,0 STARLINK-4530,1 53393U 22097F   23251.05939006 -.00007500  00000-0 -45326-3 0  9995,2 53393  53.2172 265.5646 0001106  80.4854 279.6263 15.08869947 60093,6917.789,95.436,540.419,538.889,0.0
53393.0,STARLINK-4530,PAYLOAD,2023-09-08 06:11:39,15.08897719,0.0002124,53.2172,264.6728,78.5,281.6231,-0.00080741,-0.00013136,0.0,0 STARLINK-4530,1 53393U 22097F   23251.25810040 -.00013136  00000-0 -80741-3 0  9995,2 53393  53.2172 264.6728 0002124  78.5000 281.6231 15.08897719 60126,6917.704,95.434,541.038,538.1,0.0
53393.0,STARLINK-4530,PAYLOAD,2023-09-08 12:33:13,15.088386,0.0001496,53.2171,263.4829,94.2738,265.8425,7.815e-05,9.56e-06,0.0,0 STARLINK-4530,1 53393U 22097F   23251.52307472  .00000956  00000-0  78150-4 0  9991,2 53393  53.2171 263.4829 0001496  94.2738 265.8425 15.08838600 60817,6917.885,95.438,540.785,538.715,0.0
53393.0,STARLINK-4530,PAYLOAD,2023-09-09 07:37:51,15.08829876,0.0001473,53.2167,259.9161,91.317,268.7991,0.00012896,1.764e-05,0.0,0 STARLINK-4530,1 53393U 22097F   23252.31796226  .00001764  00000-0  12896-3 0  9990,2 53393  53.2167 259.9161 0001473  91.3170 268.7991 15.08829876 60280,6917.911,95.438,540.795,538.757,0.0
53393.0,STARLINK-4530,PAYLOAD,2023-09-09 12:24:00,15.08838466,0.0001488,53.2168,259.0236,94.3134,265.8028,7.5396e-05,9.12e-06,0.0,0 STARLINK-4530,1 53393U 22097F   23252.51667788  .00000912  00000-0  75396-4 0  9991,2 53393  53.2168 259.0236 0001488  94.3134 265.8028 15.08838466 60963,6917.885,95.438,540.779,538.721,0.0
53393.0,STARLINK-4530,PAYLOAD,2023-09-10 10:39:24,15.08842933,0.0001347,53.2163,254.8602,92.7475,267.3671,7.4059e-05,8.91e-06,0.0,0 STARLINK-4530,1 53393U 22097F   23253.44403682  .00000891  00000-0  74059-4 0  9996,2 53393  53.2163 254.8602 0001347  92.7475 267.3671 15.08842933 60451,6917.871,95.437,540.668,538.805,0.0
53393.0,STARLINK-4530,PAYLOAD,2023-09-11 07:19:26,15.0883373,0.0001406,53.2172,250.9948,91.1946,268.9207,1.2303e-06,-2.68e-06,0.0,0 STARLINK-4530,1 53393U 22097F   23254.30516814 -.00000268  00000-0  12303-5 0  9998,2 53393  53.2172 250.9948 0001406  91.1946 268.9207 15.08833730 60584,6917.9,95.438,540.737,538.792,0.0
53393.0,STARLINK-4530,PAYLOAD,2023-09-11 12:05:35,15.08836696,0.0001416,53.2171,250.1023,90.7941,269.3213,2.2006e-05,6.2e-07,0.0,0 STARLINK-4530,1 53393U 22097F   23254.50388622  .00000062  00000-0  22006-4 0  9995,2 53393  53.2171 250.1023 0001416  90.7941 269.3213 15.08836696 61262,6917.89,95.438,540.735,538.776,0.0
53393.0,STARLINK-4530,PAYLOAD,2023-09-12 00:48:40,15.08839431,0.0001456,53.217,247.723,89.5756,270.5403,8.6446e-05,1.088e-05,0.0,0 STARLINK-4530,1 53393U 22097F   23255.03380352  .00001088  00000-0  86446-4 0  9993,2 53393  53.2170 247.7230 0001456  89.5756 270.5403 15.08839431 60698,6917.882,95.438,540.754,538.74,0.0
53393.0,STARLINK-4530,PAYLOAD,2023-09-12 07:10:12,15.08846382,0.0001458,53.2171,246.5337,89.2841,270.8318,7.5347e-05,9.12e-06,0.0,0 STARLINK-4530,1 53393U 22097F   23255.29875927  .00000912  00000-0  75347-4 0  9991,2 53393  53.2171 246.5337 0001458  89.2841 270.8318 15.08846382 61386,6917.861,95.437,540.735,538.717,0.0
53393.0,STARLINK-4530,PAYLOAD,2023-09-12 16:42:31,15.08844831,0.0001517,53.2174,244.7502,90.1427,269.9739,6.5164e-05,7.49e-06,0.0,0 STARLINK-4530,1 53393U 22097F   23255.69620025  .00000749  00000-0  65164-4 0  9996,2 53393  53.2174 244.7502 0001517  90.1427 269.9739 15.08844831 61440,6917.866,95.437,540.78,538.681,0.0
53393.0,STARLINK-4530,PAYLOAD,2023-09-13 08:36:22,15.08854096,0.0001535,53.2173,241.7762,103.8824,256.2339,0.00011088,1.478e-05,0.0,0 STARLINK-4530,1 53393U 22097F   23256.35859277  .00001478  00000-0  11088-3 0  9998,2 53393  53.2173 241.7762 0001535 103.8824 256.2339 15.08854096 60894,6917.837,95.437,540.764,538.64,0.0
53393.0,STARLINK-4530,PAYLOAD,2023-09-13 16:33:19,15.08834958,0.0001611,53.2172,240.2898,85.8449,274.2727,1.5246e-05,-4.5e-07,0.0,0 STARLINK-4530,1 53393U 22097F   23256.68980845 -.00000045  00000-0  15246-4 0  9991,2 53393  53.2172 240.2898 0001611  85.8449 274.2727 15.08834958 60946,6917.896,95.438,540.875,538.646,0.0
53393.0,STARLINK-4530,PAYLOAD,2023-09-14 08:27:11,15.08834539,0.0001507,53.2171,237.3153,93.6722,266.4443,-5.0709e-05,-1.095e-05,0.0,0 STARLINK-4530,1 53393U 22097F   23257.35221228 -.00001095  00000-0 -50709-4 0  9999,2 53393  53.2171 237.3153 0001507  93.6722 266.4443 15.08834539 61697,6917.897,95.438,540.805,538.72,0.0
53393.0,STARLINK-4530,PAYLOAD,2023-09-14 16:24:06,15.0883317,0.0001514,53.217,235.8284,94.5859,265.5306,-2.7799e-05,-7.3e-06,0.0,0 STARLINK-4530,1 53393U 22097F   23257.68341396 -.00000730  00000-0 -27799-4 0  9992,2 53393  53.2170 235.8284 0001514  94.5859 265.5306 15.08833170 61747,6917.901,95.438,540.814,538.719,0.0
53393.0,STARLINK-4530,PAYLOAD,2023-09-15 03:31:48,15.08837766,0.0001471,53.2168,233.7457,104.1276,255.988,-1.2775e-06,-3.08e-06,0.0,0 STARLINK-4530,1 53393U 22097F   23258.14709028 -.00000308  00000-0 -12775-5 0  9994,2 53393  53.2168 233.7457 0001471 104.1276 255.9880 15.08837766 61167,6917.887,95.438,540.77,538.735,0.0
53393.0,STARLINK-4530,PAYLOAD,2023-09-15 08:17:58,15.08834698,0.000166,53.2168,232.8552,119.2589,240.8569,2.7437e-05,1.49e-06,0.0,0 STARLINK-4530,1 53393U 22097F   23258.34581173  .00000149  00000-0  27437-4 0  9996,2 53393  53.2168 232.8552 0001660 119.2589 240.8569 15.08834698 61840,6917.897,95.438,540.91,538.613,0.0
53393.0,STARLINK-4530,PAYLOAD,2023-09-16 06:33:21,15.08849089,0.0001306,53.2169,228.6916,88.2184,271.8958,0.00022793,3.342e-05,0.0,0 STARLINK-4530,1 53393U 22097F   23259.27316031  .00003342  00000-0  22793-3 0  9995,2 53393  53.2169 228.6916 0001306  88.2184 271.8958 15.08849089 61331,6917.853,95.437,540.621,538.814,0.0
53393.0,STARLINK-4530,PAYLOAD,2023-09-17 01:37:59,15.08837438,0.0001298,53.2172,225.1263,98.6391,261.4748,9.6701e-05,1.251e-05,0.0,0 STARLINK-4530,1 53393U 22097F   23260.06805251  .00001251  00000-0  96701-4 0  9999,2 53393  53.2172 225.1263 0001298  98.6391 261.4748 15.08837438 61457,6917.888,95.438,540.651,538.855,0.0
53393.0,STARLINK-4530,PAYLOAD,2023-09-17 07:59:31,15.08843861,0.0001318,53.217,223.9341,100.1344,259.9797,0.0001483,2.073e-05,0.0,0 STARLINK-4530,1 53393U 22097F   23260.33300833  .00002073  00000-0  14830-3 0  9990,2 53393  53.2170 223.9341 0001318 100.1344 259.9797 15.08843861 62148,6917.869,95.437,540.645,538.822,0.0
53393.0,STARLINK-4530,PAYLOAD,2023-09-18 06:14:55,15.0884778,0.0001323,53.2172,219.7719,100.465,259.6491,-6.7062e-06,-3.95e-06,0.0,0 STARLINK-4530,1 53393U 22097F   23261.26036824 -.00000395  00000-0 -67062-5 0  9993,2 53393  53.2172 219.7719 0001323 100.4650 259.6491 15.08847780 62288,6917.857,95.437,540.637,538.806,0.0
53393.0,STARLINK-4530,PAYLOAD,2023-09-19 02:54:56,15.08846303,0.0001366,53.2176,215.9073,97.0175,263.0972,0.00013578,1.874e-05,0.0,0 STARLINK-4530,1 53393U 22097F   23262.12148614  .00001874  00000-0  13578-3 0  9992,2 53393  53.2176 215.9073 0001366  97.0175 263.0972 15.08846303 61768,6917.861,95.437,540.671,538.781,0.0
53393.0,STARLINK-4530,PAYLOAD,2023-09-19 06:05:42,15.08855055,0.0001442,53.217,215.3119,99.3926,260.7229,0.00010725,1.42e-05,0.0,0 STARLINK-4530,1 53393U 22097F   23262.25396102  .00001420  00000-0  10725-3 0  9991,2 53393  53.2170 215.3119 0001442  99.3926 260.7229 15.08855055 61786,6917.834,95.437,540.697,538.702,0.0
53393.0,STARLINK-4530,PAYLOAD,2023-09-20 04:21:06,15.08840233,0.0001417,53.217,211.1483,82.5867,277.5286,5.4788e-05,5.84e-06,0.0,0 STARLINK-4530,1 53393U 22097F   23263.18133092  .00000584  00000-0  54788-4 0  9999,2 53393  53.2170 211.1483 0001417  82.5867 277.5286 15.08840233 61921,6917.88,95.438,540.725,538.764,0.0
53393.0,STARLINK-4530,PAYLOAD,2023-09-20 13:53:26,15.08835766,0.0001362,53.2173,209.3639,88.617,271.4979,-4.0551e-05,-9.33e-06,0.0,0 STARLINK-4530,1 53393U 22097F   23263.57877393 -.00000933  00000-0 -40551-4 0  9994,2 53393  53.2173 209.3639 0001362  88.6170 271.4979 15.08835766 62635,6917.893,95.438,540.701,538.816,0.0
53393.0,STARLINK-4530,PAYLOAD,2023-09-21 02:36:31,15.08837933,0.0001644,53.2184,206.9825,92.7895,267.3285,-5.2544e-05,-1.124e-05,0.0,0 STARLINK-4530,1 53393U 22097F   23264.10869549 -.00001124  00000-0 -52544-4 0  9996,2 53393  53.2184 206.9825 0001644  92.7895 267.3285 15.08837933 62069,6917.887,95.438,540.889,538.614,0.0
53393.0,STARLINK-4530,PAYLOAD,2023-09-21 05:47:17,15.08839966,0.0001328,53.2176,206.3872,100.763,259.3512,-3.4681e-05,-8.4e-06,0.0,0 STARLINK-4530,1 53393U 22097F   23264.24117488 -.00000840  00000-0 -34681-4 0  9995,2 53393  53.2176 206.3872 0001328 100.7630 259.3512 15.08839966 62738,6917.88,95.438,540.664,538.827,0.0
53393.0,STARLINK-4530,PAYLOAD,2023-09-22 02:27:18,15.08845312,0.0001407,53.2171,202.5237,84.3505,275.7648,0.00024806,3.663e-05,0.0,0 STARLINK-4530,1 53393U 22097F   23265.10229772  .00003663  00000-0  24806-3 0  9992,2 53393  53.2171 202.5237 0001407  84.3505 275.7648 15.08845312 62860,6917.864,95.437,540.702,538.756,0.0
53393.0,STARLINK-4530,PAYLOAD,2023-09-23 05:28:51,15.08856716,0.0001445,53.2168,197.4688,92.5057,267.61,0.00032855,4.947e-05,0.0,0 STARLINK-4530,1 53393U 22097F   23266.22837116  .00004947  00000-0  32855-3 0  9992,2 53393  53.2168 197.4688 0001445  92.5057 267.6100 15.08856716 62383,6917.829,95.436,540.694,538.695,0.0
53393.0,STARLINK-4530,PAYLOAD,2023-09-24 03:44:15,15.08850553,0.0001438,53.2182,193.308,93.0366,267.0791,3.8071e-05,3.18e-06,0.0,0 STARLINK-4530,1 53393U 22097F   23267.15573124  .00000318  00000-0  38071-4 0  9996,2 53393  53.2182 193.3080 0001438  93.0366 267.0791 15.08850553 62520,6917.848,95.437,540.708,538.718,0.0
